ONEWEB-0300             
1 49089U 21075Q   25361.49447051  .00000005  00000+0 -21904-4 0  9991
2 49089  87.8931  24.7528 0002034  91.8911 268.2451 13.12443689212682
ONEWEB-0301             
1 49090U 21075R   25361.47837231 -.00001154  00000+0 -32431-2 0  9996
2 49090  87.8930  24.7576 0002645  96.4843 263.6587 13.12447333212048
ONEWEB-0302             
1 49091U 21075S   25361.46480441 -.00000018  00000+0 -84365-4 0  9996
2 49091  87.8928  24.7681 0001398  95.9689 264.1598 13.12440688212021
ONEWEB-0304             
1 49092U 21075T   25361.17290732  .00000034  00000+0  53149-4 0  9999
2 49092  87.9106  40.0645 0001789 101.8324 258.3009 13.17651300210928
ONEWEB-0305             
1 49093U 21075U   25361.39398494  .00000020  00000+0  17918-4 0  9997
2 49093  87.9105  39.9982 0001873 110.8144 249.3189 13.17648175210984
ONEWEB-0308             
1 49094U 21075V   25361.45802391  .00000284  00000+0  75319-3 0  9991
2 49094  87.8929  24.7623 0001745  90.6887 269.4442 13.12441867212036
ONEWEB-0309             
1 49095U 21075W   25361.16955223  .00000046  00000+0  86002-4 0  9991
2 49095  87.9105  40.0584 0001353  98.6420 261.4865 13.17648598210929
ONEWEB-0310             
1 49096U 21075X   25361.47329169 -.00000271  00000+0 -78786-3 0  9991
2 49096  87.8919  24.7957 0001727  93.4081 266.7246 13.12443220212660
